{
  "type": "FeatureCollection",
  "properties": {
    "note": "Approximate simplified polygons for choropleth rendering; for survey-grade boundaries use GADM v4.1 ADM1 dissolve. Generated 2026-05-01.",
    "source": "General knowledge of Java-Bali administrative geography",
    "bbox": [105.1, -8.85, 115.7, -5.7],
    "generated": "2026-05-01"
  },
  "features": [
    {
      "type": "Feature",
      "properties": {
        "prov": "jakarta-banten",
        "label": "DKI Jakarta + Banten",
        "centroid_lat": -6.2,
        "centroid_lng": 106.5
      },
      "geometry": {
        "type": "Polygon",
        "coordinates": [[
          [105.12, -5.72],
          [105.42, -5.70],
          [105.68, -5.72],
          [105.95, -5.80],
          [106.18, -5.85],
          [106.40, -5.90],
          [106.62, -5.90],
          [106.80, -5.92],
          [106.96, -5.98],
          [107.00, -6.14],
          [106.98, -6.32],
          [106.90, -6.48],
          [106.90, -6.60],
          [106.94, -6.76],
          [107.00, -6.84],
          [106.82, -6.92],
          [106.62, -7.00],
          [106.42, -7.08],
          [106.22, -7.05],
          [106.02, -6.96],
          [105.85, -6.86],
          [105.68, -6.76],
          [105.50, -6.66],
          [105.35, -6.55],
          [105.20, -6.42],
          [105.12, -6.26],
          [105.10, -6.08],
          [105.14, -5.92],
          [105.12, -5.72]
        ]]
      }
    },
    {
      "type": "Feature",
      "properties": {
        "prov": "jabar",
        "label": "Jawa Barat",
        "centroid_lat": -7.0,
        "centroid_lng": 107.5
      },
      "geometry": {
        "type": "Polygon",
        "coordinates": [[
          [106.42, -7.08],
          [106.62, -7.00],
          [106.82, -6.92],
          [107.00, -6.84],
          [106.94, -6.76],
          [106.90, -6.60],
          [106.90, -6.48],
          [106.98, -6.32],
          [107.00, -6.14],
          [107.04, -5.98],
          [107.16, -5.93],
          [107.34, -5.91],
          [107.54, -5.92],
          [107.75, -5.93],
          [107.96, -5.95],
          [108.16, -5.98],
          [108.36, -6.04],
          [108.55, -6.10],
          [108.72, -6.15],
          [108.82, -6.24],
          [108.82, -6.42],
          [108.78, -6.60],
          [108.70, -6.78],
          [108.60, -6.95],
          [108.48, -7.10],
          [108.36, -7.26],
          [108.26, -7.42],
          [108.16, -7.58],
          [108.04, -7.72],
          [107.86, -7.80],
          [107.66, -7.78],
          [107.46, -7.72],
          [107.26, -7.64],
          [107.08, -7.54],
          [106.92, -7.44],
          [106.76, -7.34],
          [106.62, -7.24],
          [106.52, -7.18],
          [106.42, -7.08]
        ]]
      }
    },
    {
      "type": "Feature",
      "properties": {
        "prov": "jateng",
        "label": "Jawa Tengah + DIY",
        "centroid_lat": -7.4,
        "centroid_lng": 110.5
      },
      "geometry": {
        "type": "Polygon",
        "coordinates": [[
          [108.48, -7.10],
          [108.60, -6.95],
          [108.70, -6.78],
          [108.78, -6.60],
          [108.82, -6.42],
          [108.82, -6.24],
          [108.90, -6.38],
          [108.98, -6.55],
          [109.10, -6.68],
          [109.26, -6.76],
          [109.46, -6.78],
          [109.66, -6.76],
          [109.86, -6.72],
          [110.06, -6.68],
          [110.26, -6.64],
          [110.46, -6.60],
          [110.66, -6.56],
          [110.84, -6.52],
          [111.00, -6.48],
          [111.15, -6.46],
          [111.28, -6.50],
          [111.40, -6.55],
          [111.52, -6.62],
          [111.62, -6.72],
          [111.68, -6.86],
          [111.70, -7.00],
          [111.66, -7.14],
          [111.55, -7.28],
          [111.42, -7.42],
          [111.26, -7.54],
          [111.08, -7.64],
          [110.90, -7.72],
          [110.72, -7.78],
          [110.54, -7.80],
          [110.36, -7.80],
          [110.18, -7.76],
          [110.00, -7.70],
          [109.82, -7.62],
          [109.64, -7.54],
          [109.46, -7.46],
          [109.28, -7.38],
          [109.10, -7.30],
          [108.92, -7.32],
          [108.78, -7.42],
          [108.66, -7.52],
          [108.56, -7.40],
          [108.48, -7.10]
        ]]
      }
    },
    {
      "type": "Feature",
      "properties": {
        "prov": "jatim",
        "label": "Jawa Timur",
        "centroid_lat": -7.7,
        "centroid_lng": 112.6
      },
      "geometry": {
        "type": "Polygon",
        "coordinates": [[
          [111.00, -6.80],
          [111.20, -6.75],
          [111.42, -6.70],
          [111.65, -6.68],
          [111.88, -6.66],
          [112.10, -6.64],
          [112.32, -6.62],
          [112.55, -6.62],
          [112.78, -6.64],
          [112.98, -6.68],
          [113.16, -6.74],
          [113.32, -6.82],
          [113.48, -6.90],
          [113.60, -7.00],
          [113.70, -7.12],
          [113.76, -7.26],
          [113.78, -7.40],
          [113.76, -7.54],
          [113.68, -7.68],
          [113.58, -7.80],
          [113.44, -7.90],
          [113.28, -8.00],
          [113.10, -8.08],
          [112.90, -8.14],
          [112.68, -8.18],
          [112.46, -8.16],
          [112.24, -8.10],
          [112.02, -8.02],
          [111.82, -7.92],
          [111.64, -7.80],
          [111.48, -7.68],
          [111.32, -7.54],
          [111.18, -7.40],
          [111.04, -7.26],
          [110.92, -7.12],
          [110.96, -6.96],
          [111.00, -6.80]
        ]]
      }
    },
    {
      "type": "Feature",
      "properties": {
        "prov": "bali",
        "label": "Bali",
        "centroid_lat": -8.4,
        "centroid_lng": 115.2
      },
      "geometry": {
        "type": "Polygon",
        "coordinates": [[
          [114.42, -8.16],
          [114.56, -8.09],
          [114.70, -8.07],
          [114.84, -8.06],
          [114.98, -8.07],
          [115.11, -8.09],
          [115.22, -8.11],
          [115.34, -8.09],
          [115.44, -8.10],
          [115.54, -8.14],
          [115.62, -8.22],
          [115.68, -8.32],
          [115.70, -8.44],
          [115.70, -8.56],
          [115.66, -8.66],
          [115.58, -8.74],
          [115.48, -8.80],
          [115.36, -8.84],
          [115.22, -8.85],
          [115.08, -8.82],
          [114.94, -8.76],
          [114.80, -8.68],
          [114.68, -8.58],
          [114.56, -8.47],
          [114.46, -8.36],
          [114.40, -8.26],
          [114.42, -8.16]
        ]]
      }
    }
  ]
}
